[{"OBJECT_NAME":"STARLINK-35177","OBJECT_ID":"2025-211X","EPOCH":"2026-03-09T15:56:19.993056","MEAN_MOTION":15.05649843,"ECCENTRICITY":0.00016962,"INCLINATION":97.6037,"RA_OF_ASC_NODE":114.1278,"ARG_OF_PERICENTER":107.8979,"MEAN_ANOMALY":252.2432,"EPHEMERIS_TYPE":0,"CLASSIFICATION_TYPE":"U","NORAD_CAT_ID":65673,"ELEMENT_SET_NO":999,"REV_AT_EPOCH":2704,"BSTAR":0.00045786336,"MEAN_MOTION_DOT":6.552e-5,"MEAN_MOTION_DDOT":0},{"OBJECT_NAME":"CZ-6A DEB","OBJECT_ID":"2024-140FM","EPOCH":"2026-03-09T15:58:48.665856","MEAN_MOTION":15.24907574,"ECCENTRICITY":0.01008734,"INCLINATION":89.2247,"RA_OF_ASC_NODE":296.4931,"ARG_OF_PERICENTER":41.247,"MEAN_ANOMALY":319.6342,"EPHEMERIS_TYPE":0,"CLASSIFICATION_TYPE":"U","NORAD_CAT_ID":60786,"ELEMENT_SET_NO":999,"REV_AT_EPOCH":8558,"BSTAR":0.0022097808,"MEAN_MOTION_DOT":0.0006402,"MEAN_MOTION_DDOT":0}]
